[{"OBJECT_NAME":"STARLINK-34627","OBJECT_ID":"2025-161B","EPOCH":"2026-03-09T22:00:57.788064","MEAN_MOTION":15.30211152,"ECCENTRICITY":7.642e-5,"INCLINATION":53.1584,"RA_OF_ASC_NODE":293.2258,"ARG_OF_PERICENTER":115.0738,"MEAN_ANOMALY":245.0342,"EPHEMERIS_TYPE":0,"CLASSIFICATION_TYPE":"U","NORAD_CAT_ID":65016,"ELEMENT_SET_NO":999,"REV_AT_EPOCH":3547,"BSTAR":0.00093032389,"MEAN_MOTION_DOT":0.00027305,"MEAN_MOTION_DDOT":0},{"OBJECT_NAME":"CZ-2C R\/B","OBJECT_ID":"2024-218A","EPOCH":"2026-03-09T22:16:31.791072","MEAN_MOTION":15.22960743,"ECCENTRICITY":0.00453409,"INCLINATION":97.5416,"RA_OF_ASC_NODE":83.973,"ARG_OF_PERICENTER":359.5317,"MEAN_ANOMALY":0.5869,"EPHEMERIS_TYPE":0,"CLASSIFICATION_TYPE":"U","NORAD_CAT_ID":62078,"ELEMENT_SET_NO":999,"REV_AT_EPOCH":7134,"BSTAR":0.00039378379,"MEAN_MOTION_DOT":9.445e-5,"MEAN_MOTION_DDOT":0}]
